[{"OBJECT_NAME":"HST","OBJECT_ID":"1990-037B","EPOCH":"2026-03-09T03:50:04.164288","MEAN_MOTION":15.29473555,"ECCENTRICITY":0.00018372,"INCLINATION":28.4717,"RA_OF_ASC_NODE":43.6133,"ARG_OF_PERICENTER":120.9992,"MEAN_ANOMALY":239.0785,"EPHEMERIS_TYPE":0,"CLASSIFICATION_TYPE":"U","NORAD_CAT_ID":20580,"ELEMENT_SET_NO":999,"REV_AT_EPOCH":77323,"BSTAR":0.0003002261,"MEAN_MOTION_DOT":9.063e-5,"MEAN_MOTION_DDOT":0},{"OBJECT_NAME":"STARLINK-31116","OBJECT_ID":"2024-027S","EPOCH":"2026-03-09T22:14:46.341600","MEAN_MOTION":15.3018636,"ECCENTRICITY":0.00010289,"INCLINATION":53.1607,"RA_OF_ASC_NODE":308.5889,"ARG_OF_PERICENTER":104.816,"MEAN_ANOMALY":255.2955,"EPHEMERIS_TYPE":0,"CLASSIFICATION_TYPE":"U","NORAD_CAT_ID":58947,"ELEMENT_SET_NO":999,"REV_AT_EPOCH":11736,"BSTAR":4.776632e-5,"MEAN_MOTION_DOT":1.055e-5,"MEAN_MOTION_DDOT":0}]
